[{"OBJECT_NAME":"STARLINK-3575","OBJECT_ID":"2022-022AC","EPOCH":"2026-03-09T03:15:49.470336","MEAN_MOTION":15.08849319,"ECCENTRICITY":0.00012665,"INCLINATION":53.2188,"RA_OF_ASC_NODE":11.6047,"ARG_OF_PERICENTER":102.3883,"MEAN_ANOMALY":257.7251,"EPHEMERIS_TYPE":0,"CLASSIFICATION_TYPE":"U","NORAD_CAT_ID":51878,"ELEMENT_SET_NO":999,"REV_AT_EPOCH":22303,"BSTAR":0.00016448209,"MEAN_MOTION_DOT":2.331e-5,"MEAN_MOTION_DDOT":0},{"OBJECT_NAME":"KUIPER-00153","OBJECT_ID":"2025-217M","EPOCH":"2026-03-09T22:00:01.999584","MEAN_MOTION":15.08685712,"ECCENTRICITY":0.00100607,"INCLINATION":51.8801,"RA_OF_ASC_NODE":26.4916,"ARG_OF_PERICENTER":321.9781,"MEAN_ANOMALY":312.405,"EPHEMERIS_TYPE":0,"CLASSIFICATION_TYPE":"U","NORAD_CAT_ID":65773,"ELEMENT_SET_NO":999,"REV_AT_EPOCH":517,"BSTAR":-0.00046487713,"MEAN_MOTION_DOT":-7.667e-5,"MEAN_MOTION_DDOT":0}]
